{
  "type": "FeatureCollection",
  "features": [
    {
      "type": "Feature",
      "properties": {
        "norad_id": 25590,
        "name": "COSMOS 2361",
        "group": "musson",
        "lat": 56.37980977819864,
        "lon": -5.873064260402054,
        "alt_km": 1002.5626057138534,
        "timestamp": "2025-12-13T16:48:32.980152+00:00",
        "meta_object_name": "COSMOS 2361",
        "meta_object_id": "1998-076A",
        "meta_epoch": "2025-12-12T23:19:22.425312",
        "meta_mean_motion": 13.73217544,
        "meta_eccentricity": 0.00300549,
        "meta_inclination": 82.9339,
        "meta_ra_of_asc_node": 343.9147,
        "meta_arg_of_pericenter": 264.9245,
        "meta_mean_anomaly": 152.1878,
        "meta_ephemeris_type": 0,
        "meta_classification_type": "U",
        "meta_norad_cat_id": 25590,
        "meta_element_set_no": 999,
        "meta_rev_at_epoch": 35114,
        "meta_bstar": 9.4131968e-05,
        "meta_mean_motion_dot": 1.02e-06,
        "meta_mean_motion_ddot": 0,
        "tle_line1": "1 25590U 98076A   25346.97178733  .00000102  00000+0  94132-4 0  9991",
        "tle_line2": "2 25590  82.9339 343.9147 0030054 264.9245 152.1878 13.73217544351145"
      },
      "geometry": {
        "type": "Point",
        "coordinates": [
          -5.873064260402054,
          56.37980977819864
        ]
      }
    },
    {
      "type": "Feature",
      "properties": {
        "norad_id": 26818,
        "name": "COSMOS 2378",
        "group": "musson",
        "lat": 47.0250904229394,
        "lon": 171.35519789807594,
        "alt_km": 972.2420051384815,
        "timestamp": "2025-12-13T16:48:32.980174+00:00",
        "meta_object_name": "COSMOS 2378",
        "meta_object_id": "2001-023A",
        "meta_epoch": "2025-12-13T00:42:49.582656",
        "meta_mean_motion": 13.74142032,
        "meta_eccentricity": 0.00324156,
        "meta_inclination": 82.9272,
        "meta_ra_of_asc_node": 359.5098,
        "meta_arg_of_pericenter": 204.0668,
        "meta_mean_anomaly": 212.9749,
        "meta_ephemeris_type": 0,
        "meta_classification_type": "U",
        "meta_norad_cat_id": 26818,
        "meta_element_set_no": 999,
        "meta_rev_at_epoch": 22927,
        "meta_bstar": 6.5833607e-05,
        "meta_mean_motion_dot": 7.7e-07,
        "meta_mean_motion_ddot": 0,
        "tle_line1": "1 26818U 01023A   25347.02974054  .00000077  00000+0  65834-4 0  9996",
        "tle_line2": "2 26818  82.9272 359.5098 0032415 204.0668 212.9749 13.74142032229270"
      },
      "geometry": {
        "type": "Point",
        "coordinates": [
          171.35519789807594,
          47.0250904229394
        ]
      }
    },
    {
      "type": "Feature",
      "properties": {
        "norad_id": 27436,
        "name": "COSMOS 2389",
        "group": "musson",
        "lat": -17.31433740301756,
        "lon": -55.9371819664425,
        "alt_km": 977.0050233107722,
        "timestamp": "2025-12-13T16:48:32.980187+00:00",
        "meta_object_name": "COSMOS 2389",
        "meta_object_id": "2002-026A",
        "meta_epoch": "2025-12-12T23:45:55.770048",
        "meta_mean_motion": 13.75154681,
        "meta_eccentricity": 0.00476101,
        "meta_inclination": 82.9503,
        "meta_ra_of_asc_node": 306.7991,
        "meta_arg_of_pericenter": 60.061,
        "meta_mean_anomaly": 9.4593,
        "meta_ephemeris_type": 0,
        "meta_classification_type": "U",
        "meta_norad_cat_id": 27436,
        "meta_element_set_no": 999,
        "meta_rev_at_epoch": 18152,
        "meta_bstar": 8.7448941e-05,
        "meta_mean_motion_dot": 1e-06,
        "meta_mean_motion_ddot": 0,
        "tle_line1": "1 27436U 02026A   25346.99022882  .00000100  00000+0  87449-4 0  9998",
        "tle_line2": "2 27436  82.9503 306.7991 0047610  60.0610   9.4593 13.75154681181525"
      },
      "geometry": {
        "type": "Point",
        "coordinates": [
          -55.9371819664425,
          -17.31433740301756
        ]
      }
    },
    {
      "type": "Feature",
      "properties": {
        "norad_id": 27818,
        "name": "COSMOS 2398",
        "group": "musson",
        "lat": -72.2935212212878,
        "lon": -110.81967750036365,
        "alt_km": 1022.3232049715134,
        "timestamp": "2025-12-13T16:48:32.980199+00:00",
        "meta_object_name": "COSMOS 2398",
        "meta_object_id": "2003-023A",
        "meta_epoch": "2025-12-12T22:15:34.629696",
        "meta_mean_motion": 13.72385763,
        "meta_eccentricity": 0.00325849,
        "meta_inclination": 82.9485,
        "meta_ra_of_asc_node": 272.5599,
        "meta_arg_of_pericenter": 111.2927,
        "meta_mean_anomaly": 318.5835,
        "meta_ephemeris_type": 0,
        "meta_classification_type": "U",
        "meta_norad_cat_id": 27818,
        "meta_element_set_no": 999,
        "meta_rev_at_epoch": 12819,
        "meta_bstar": 7.4402366e-05,
        "meta_mean_motion_dot": 8.4e-07,
        "meta_mean_motion_ddot": 0,
        "tle_line1": "1 27818U 03023A   25346.92748414  .00000084  00000+0  74402-4 0  9995",
        "tle_line2": "2 27818  82.9485 272.5599 0032584 111.2927 318.5835 13.72385763128197"
      },
      "geometry": {
        "type": "Point",
        "coordinates": [
          -110.81967750036365,
          -72.2935212212878
        ]
      }
    },
    {
      "type": "Feature",
      "properties": {
        "norad_id": 28380,
        "name": "COSMOS 2407",
        "group": "musson",
        "lat": 43.45549757958572,
        "lon": 25.458453058936442,
        "alt_km": 970.0457334721987,
        "timestamp": "2025-12-13T16:48:32.980210+00:00",
        "meta_object_name": "COSMOS 2407",
        "meta_object_id": "2004-028A",
        "meta_epoch": "2025-12-13T00:58:51.959424",
        "meta_mean_motion": 13.76313686,
        "meta_eccentricity": 0.00403189,
        "meta_inclination": 82.9606,
        "meta_ra_of_asc_node": 212.6698,
        "meta_arg_of_pericenter": 54.0303,
        "meta_mean_anomaly": 55.7512,
        "meta_ephemeris_type": 0,
        "meta_classification_type": "U",
        "meta_norad_cat_id": 28380,
        "meta_element_set_no": 999,
        "meta_rev_at_epoch": 7427,
        "meta_bstar": 6.7225593e-05,
        "meta_mean_motion_dot": 8.1e-07,
        "meta_mean_motion_ddot": 0,
        "tle_line1": "1 28380U 04028A   25347.04087916  .00000081  00000+0  67226-4 0  9996",
        "tle_line2": "2 28380  82.9606 212.6698 0040318  54.0303  55.7512 13.76313686 74278"
      },
      "geometry": {
        "type": "Point",
        "coordinates": [
          25.458453058936442,
          43.45549757958572
        ]
      }
    },
    {
      "type": "Feature",
      "properties": {
        "norad_id": 28521,
        "name": "COSMOS 2414",
        "group": "musson",
        "lat": 76.66055985622913,
        "lon": -144.60347095218305,
        "alt_km": 912.9540136603691,
        "timestamp": "2025-12-13T16:48:32.980221+00:00",
        "meta_object_name": "COSMOS 2414",
        "meta_object_id": "2005-002A",
        "meta_epoch": "2025-12-12T23:07:44.524992",
        "meta_mean_motion": 13.87902886,
        "meta_eccentricity": 0.00409125,
        "meta_inclination": 82.9491,
        "meta_ra_of_asc_node": 184.4906,
        "meta_arg_of_pericenter": 139.0442,
        "meta_mean_anomaly": 221.3807,
        "meta_ephemeris_type": 0,
        "meta_classification_type": "U",
        "meta_norad_cat_id": 28521,
        "meta_element_set_no": 999,
        "meta_rev_at_epoch": 5798,
        "meta_bstar": 7.1566352e-05,
        "meta_mean_motion_dot": 1.02e-06,
        "meta_mean_motion_ddot": 0,
        "tle_line1": "1 28521U 05002A   25346.96370978  .00000102  00000+0  71566-4 0  9995",
        "tle_line2": "2 28521  82.9491 184.4906 0040912 139.0442 221.3807 13.87902886 57988"
      },
      "geometry": {
        "type": "Point",
        "coordinates": [
          -144.60347095218305,
          76.66055985622913
        ]
      }
    },
    {
      "type": "Feature",
      "properties": {
        "norad_id": 32052,
        "name": "COSMOS 2429",
        "group": "musson",
        "lat": 10.45912439540791,
        "lon": 161.29747395144824,
        "alt_km": 1002.6352615905962,
        "timestamp": "2025-12-13T16:48:32.980232+00:00",
        "meta_object_name": "COSMOS 2429",
        "meta_object_id": "2007-038A",
        "meta_epoch": "2025-12-13T00:16:29.593632",
        "meta_mean_motion": 13.75149392,
        "meta_eccentricity": 0.00392224,
        "meta_inclination": 82.9804,
        "meta_ra_of_asc_node": 343.1084,
        "meta_arg_of_pericenter": 37.1258,
        "meta_mean_anomaly": 323.26,
        "meta_ephemeris_type": 0,
        "meta_classification_type": "U",
        "meta_norad_cat_id": 32052,
        "meta_element_set_no": 999,
        "meta_rev_at_epoch": 91606,
        "meta_bstar": 7.9965016e-05,
        "meta_mean_motion_dot": 9.2e-07,
        "meta_mean_motion_ddot": 0,
        "tle_line1": "1 32052U 07038A   25347.01145363  .00000092  00000+0  79965-4 0  9994",
        "tle_line2": "2 32052  82.9804 343.1084 0039222  37.1258 323.2600 13.75149392916064"
      },
      "geometry": {
        "type": "Point",
        "coordinates": [
          161.29747395144824,
          10.45912439540791
        ]
      }
    },
    {
      "type": "Feature",
      "properties": {
        "norad_id": 35635,
        "name": "COSMOS 2454",
        "group": "musson",
        "lat": 43.03140840522127,
        "lon": -18.71187003388344,
        "alt_km": 919.0643249154264,
        "timestamp": "2025-12-13T16:48:32.980243+00:00",
        "meta_object_name": "COSMOS 2454",
        "meta_object_id": "2009-039A",
        "meta_epoch": "2025-12-12T23:27:14.798304",
        "meta_mean_motion": 13.89928705,
        "meta_eccentricity": 0.00204304,
        "meta_inclination": 82.9554,
        "meta_ra_of_asc_node": 168.465,
        "meta_arg_of_pericenter": 73.1068,
        "meta_mean_anomaly": 46.8884,
        "meta_ephemeris_type": 0,
        "meta_classification_type": "U",
        "meta_norad_cat_id": 35635,
        "meta_element_set_no": 999,
        "meta_rev_at_epoch": 83153,
        "meta_bstar": 8.512832e-05,
        "meta_mean_motion_dot": 1.21e-06,
        "meta_mean_motion_ddot": 0,
        "tle_line1": "1 35635U 09039A   25346.97725461  .00000121  00000+0  85128-4 0  9995",
        "tle_line2": "2 35635  82.9554 168.4650 0020430  73.1068  46.8884 13.89928705831531"
      },
      "geometry": {
        "type": "Point",
        "coordinates": [
          -18.71187003388344,
          43.03140840522127
        ]
      }
    },
    {
      "type": "Feature",
      "properties": {
        "norad_id": 36519,
        "name": "COSMOS 2463",
        "group": "musson",
        "lat": 65.65820030977085,
        "lon": -169.8412208139181,
        "alt_km": 1012.6663282560958,
        "timestamp": "2025-12-13T16:48:32.980253+00:00",
        "meta_object_name": "COSMOS 2463",
        "meta_object_id": "2010-017A",
        "meta_epoch": "2025-12-12T21:50:49.830144",
        "meta_mean_motion": 13.71649183,
        "meta_eccentricity": 0.00347944,
        "meta_inclination": 82.9613,
        "meta_ra_of_asc_node": 26.5874,
        "meta_arg_of_pericenter": 287.576,
        "meta_mean_anomaly": 246.6116,
        "meta_ephemeris_type": 0,
        "meta_classification_type": "U",
        "meta_norad_cat_id": 36519,
        "meta_element_set_no": 999,
        "meta_rev_at_epoch": 78239,
        "meta_bstar": 5.5201203e-05,
        "meta_mean_motion_dot": 6.5e-07,
        "meta_mean_motion_ddot": 0,
        "tle_line1": "1 36519U 10017A   25346.91029896  .00000065  00000+0  55201-4 0  9994",
        "tle_line2": "2 36519  82.9613  26.5874 0034794 287.5760 246.6116 13.71649183782397"
      },
      "geometry": {
        "type": "Point",
        "coordinates": [
          -169.8412208139181,
          65.65820030977085
        ]
      }
    }
  ]
}